[{"OBJECT_NAME":"GALAXY 33 (G-33)","OBJECT_ID":"2022-128A","EPOCH":"2026-02-01T22:42:52.751232","MEAN_MOTION":1.00274237,"ECCENTRICITY":0.00021975,"INCLINATION":0.0142,"RA_OF_ASC_NODE":335.3693,"ARG_OF_PERICENTER":324.2604,"MEAN_ANOMALY":40.1952,"EPHEMERIS_TYPE":0,"CLASSIFICATION_TYPE":"U","NORAD_CAT_ID":54026,"ELEMENT_SET_NO":999,"REV_AT_EPOCH":1238,"BSTAR":0,"MEAN_MOTION_DOT":6.9e-7,"MEAN_MOTION_DDOT":0},{"OBJECT_NAME":"GALAXY 34 (G-34)","OBJECT_ID":"2022-128B","EPOCH":"2026-02-01T11:19:14.577600","MEAN_MOTION":1.00301558,"ECCENTRICITY":0.000165,"INCLINATION":0.0178,"RA_OF_ASC_NODE":83.9813,"ARG_OF_PERICENTER":259.9244,"MEAN_ANOMALY":188.5755,"EPHEMERIS_TYPE":0,"CLASSIFICATION_TYPE":"U","NORAD_CAT_ID":54027,"ELEMENT_SET_NO":999,"REV_AT_EPOCH":1255,"BSTAR":0,"MEAN_MOTION_DOT":4.6e-7,"MEAN_MOTION_DDOT":0},{"OBJECT_NAME":"GALAXY 31 (G-31)","OBJECT_ID":"2022-153A","EPOCH":"2026-02-01T16:20:03.721632","MEAN_MOTION":1.00271557,"ECCENTRICITY":0.00016873,"INCLINATION":0.0232,"RA_OF_ASC_NODE":109.2737,"ARG_OF_PERICENTER":209.2282,"MEAN_ANOMALY":297.3678,"EPHEMERIS_TYPE":0,"CLASSIFICATION_TYPE":"U","NORAD_CAT_ID":54243,"ELEMENT_SET_NO":999,"REV_AT_EPOCH":577,"BSTAR":0,"MEAN_MOTION_DOT":4.0e-8,"MEAN_MOTION_DDOT":0},{"OBJECT_NAME":"GALAXY 32 (G-32)","OBJECT_ID":"2022-153B","EPOCH":"2026-02-01T21:36:41.747616","MEAN_MOTION":1.00268591,"ECCENTRICITY":0.00029211,"INCLINATION":0.0256,"RA_OF_ASC_NODE":77.265,"ARG_OF_PERICENTER":260.3576,"MEAN_ANOMALY":27.6579,"EPHEMERIS_TYPE":0,"CLASSIFICATION_TYPE":"U","NORAD_CAT_ID":54244,"ELEMENT_SET_NO":999,"REV_AT_EPOCH":1178,"BSTAR":0,"MEAN_MOTION_DOT":0,"MEAN_MOTION_DDOT":0},{"OBJECT_NAME":"GALAXY 35 (G-35)","OBJECT_ID":"2022-170A","EPOCH":"2026-02-01T21:36:11.795328","MEAN_MOTION":1.00271577,"ECCENTRICITY":0.00021907,"INCLINATION":0.0149,"RA_OF_ASC_NODE":116.6885,"ARG_OF_PERICENTER":194.7551,"MEAN_ANOMALY":51.5809,"EPHEMERIS_TYPE":0,"CLASSIFICATION_TYPE":"U","NORAD_CAT_ID":54741,"ELEMENT_SET_NO":999,"REV_AT_EPOCH":1153,"BSTAR":0,"MEAN_MOTION_DOT":-1.72e-6,"MEAN_MOTION_DDOT":0},{"OBJECT_NAME":"GALAXY 36 (G-36)","OBJECT_ID":"2022-170B","EPOCH":"2026-02-01T21:37:19.188192","MEAN_MOTION":1.00270683,"ECCENTRICITY":0.00013566,"INCLINATION":0.0128,"RA_OF_ASC_NODE":130.6205,"ARG_OF_PERICENTER":241.6053,"MEAN_ANOMALY":355.1778,"EPHEMERIS_TYPE":0,"CLASSIFICATION_TYPE":"U","NORAD_CAT_ID":54742,"ELEMENT_SET_NO":999,"REV_AT_EPOCH":1141,"BSTAR":0,"MEAN_MOTION_DOT":-1.95e-6,"MEAN_MOTION_DDOT":0},{"OBJECT_NAME":"GALAXY 37 (G-37)","OBJECT_ID":"2023-112A","EPOCH":"2026-02-01T16:18:18.889920","MEAN_MOTION":1.00271108,"ECCENTRICITY":0.00021589,"INCLINATION":0.0203,"RA_OF_ASC_NODE":66.3103,"ARG_OF_PERICENTER":245.9234,"MEAN_ANOMALY":297.1969,"EPHEMERIS_TYPE":0,"CLASSIFICATION_TYPE":"U","NORAD_CAT_ID":57493,"ELEMENT_SET_NO":999,"REV_AT_EPOCH":918,"BSTAR":0,"MEAN_MOTION_DOT":3.8e-7,"MEAN_MOTION_DDOT":0}]
