GALAXY 33 (G-33)        
1 54026U 22128A   26032.94644388  .00000069  00000+0  00000+0 0  9994
2 54026   0.0142 335.3693 0002197 324.2604  40.1952  1.00274237 12389
GALAXY 34 (G-34)        
1 54027U 22128B   26032.47169650  .00000046  00000+0  00000+0 0  9992
2 54027   0.0178  83.9813 0001650 259.9244 188.5755  1.00301558 12550
GALAXY 31 (G-31)        
1 54243U 22153A   26032.68059863  .00000004  00000+0  00000+0 0  9991
2 54243   0.0232 109.2737 0001687 209.2282 297.3678  1.00271557  5772
GALAXY 32 (G-32)        
1 54244U 22153B   26032.90048319  .00000000  00000+0  00000+0 0  9997
2 54244   0.0256  77.2650 0002921 260.3576  27.6579  1.00268591 11789
GALAXY 35 (G-35)        
1 54741U 22170A   26032.90013652 -.00000172  00000+0  00000+0 0  9991
2 54741   0.0149 116.6885 0002190 194.7551  51.5809  1.00271577 11534
GALAXY 36 (G-36)        
1 54742U 22170B   26032.90091653 -.00000195  00000+0  00000+0 0  9994
2 54742   0.0128 130.6205 0001356 241.6053 355.1778  1.00270683 11418
GALAXY 37 (G-37)        
1 57493U 23112A   26032.67938530  .00000038  00000+0  00000+0 0  9990
2 57493   0.0203  66.3103 0002158 245.9234 297.1969  1.00271108  9180
